{
"type": "FeatureCollection",
"name": "(A) ORLAND STATES",
"crs": { "type": "name", "properties": { "name": "urn:ogc:def:crs:OGC:1.3:CRS84" } },
"features": [
{ "type": "Feature", "properties": { "STATE": "AQUALAND" }, "geometry": { "type": "MultiPolygon", "coordinates": [ [ [ [ -19.962458057509604, -44.474310866906684 ], [ -19.945355283020245, -44.443525872825838 ], [ -19.909439456592594, -44.453787537519453 ], [ -19.950486115367053, -44.494834196293915 ], [ -19.984691664345771, -44.506806138436467 ], [ -19.986401941794707, -44.487993086498172 ], [ -19.962458057509604, -44.474310866906684 ] ] ], [ [ [ -20.100086225560283, -44.442227296488468 ], [ -20.072774494835958, -44.451079876537413 ], [ -20.082159690814244, -44.466721869834558 ], [ -20.130581616622113, -44.459030793545857 ], [ -20.100086225560283, -44.442227296488468 ] ] ], [ [ [ -20.130581616622113, -44.459030793545857 ], [ -20.122828873386819, -44.487056461120844 ], [ -20.182268447915966, -44.480799663801982 ], [ -20.177085302208042, -44.460539117454381 ], [ -20.188525245234828, -44.455772474526555 ], [ -20.169754853278253, -44.463593471175123 ], [ -20.169754853278253, -44.447951477877979 ], [ -20.165062255289108, -44.43074528525112 ], [ -20.150984461321677, -44.419795889943124 ], [ -20.12595727204625, -44.401025497986545 ], [ -20.097801684111388, -44.407282295305407 ], [ -20.098088614298998, -44.442874784330805 ], [ -20.100086225560283, -44.442227296488468 ], [ -20.110315278749106, -44.432309484580834 ], [ -20.12985898273385, -44.417932910966158 ], [ -20.136660613527106, -44.447406644403586 ], [ -20.140035066013681, -44.46202927184541 ], [ -20.130581616622113, -44.459030793545857 ] ] ], [ [ [ -20.202162248579398, -44.174848793014071 ], [ -20.798602473300001, -43.800843001 ], [ -21.649264522499998, -43.275347546500001 ], [ -22.215382547069716, -42.93428737803653 ], [ -23.26773579230575, -42.273605817660183 ], [ -23.67587306671463, -41.85452507092571 ], [ -24.808264207114831, -41.323154747615121 ], [ -24.789359758132512, -41.324488575765841 ], [ -24.174301959338599, -41.351676170448897 ], [ -24.173446938482371, -41.351351264248507 ], [ -23.978419098855291, -41.277241078652708 ], [ -23.602398998399998, -41.135546383400005 ], [ -23.244002914100001, -40.999984012700004 ], [ -22.889038053347313, -40.854054014397505 ], [ -22.888813035846894, -40.854524529743415 ], [ -22.809392621493757, -40.826669202501392 ], [ -22.1903723671, -40.609558628400002 ], [ -21.499630736879396, -40.662719376888944 ], [ -20.303123063884843, -40.754804811856623 ], [ -19.917796081899688, -40.785012172479107 ], [ -19.110817867125178, -40.870331010347591 ], [ -18.932330423051127, -40.889381157465159 ], [ -17.964147284699997, -41.022801285100002 ], [ -17.8955535196, -41.415310052400002 ], [ -17.841488232069633, -41.731722792819646 ], [ -17.831915890167402, -41.787744152769271 ], [ -17.809249254305335, -41.889573448320284 ], [ -17.617358928429315, -42.816397801821552 ], [ -17.540887279524142, -43.071724822507178 ], [ -17.448907139756855, -43.973417955037498 ], [ -17.447230671864297, -43.989852585268061 ], [ -17.408664776039185, -44.126235692329608 ], [ -17.250499954600002, -44.685564324900007 ], [ -17.24262173, -44.952436204500003 ], [ -17.172114081380773, -45.138017052615652 ], [ -17.136271880399999, -45.533090307100004 ], [ -17.125401222699999, -45.593373045300005 ], [ -17.467610434800001, -45.476462215300003 ], [ -18.323740733362584, -45.206070952517216 ], [ -19.215231569781814, -44.890975053423418 ], [ -19.478789556937748, -44.679975397619678 ], [ -19.645724583368299, -44.497828809256916 ], [ -20.202162248579398, -44.174848793014071 ] ] ], [ [ [ -24.816156989671519, -41.320379752530343 ], [ -24.808264207114831, -41.323154747615121 ], [ -24.817749158675277, -41.322485524438534 ], [ -24.816156989671519, -41.320379752530343 ] ] ] ] } },
{ "type": "Feature", "properties": { "STATE": "MARCENNE" }, "geometry": { "type": "MultiPolygon", "coordinates": [ [ [ [ -11.621378322419552, -35.602941785733549 ], [ -12.331904618401587, -35.427578505206142 ], [ -12.4171946387, -35.414363644500007 ], [ -13.170820940483964, -35.256768412348407 ], [ -13.41595814495313, -35.208939764232703 ], [ -14.448566511500001, -34.564639876499996 ], [ -14.317262521267809, -34.241532775764995 ], [ -14.187203805499999, -33.741076397300006 ], [ -13.567824553641398, -33.470438132395564 ], [ -13.159495434529932, -33.254044260198967 ], [ -12.393632992699999, -32.946629037400001 ], [ -11.889873409470496, -32.696349195649937 ], [ -10.405906013357557, -31.990070858644962 ], [ -10.218913724821142, -32.098890660433128 ], [ -10.081547633165261, -32.173431658348726 ], [ -10.067010025900315, -32.181320415608774 ], [ -10.0668291849, -32.181157747100002 ], [ -10.052348682652271, -32.189429170836149 ], [ -8.8562223821, -32.819886229500007 ], [ -8.886275015399999, -33.411142490600007 ], [ -8.909027895882742, -33.959089483174289 ], [ -8.924864647894285, -34.484547794427492 ], [ -8.921995449553147, -34.484662998446112 ], [ -8.4431026849518, -34.986025224730085 ], [ -8.770912382020823, -35.023466677307916 ], [ -8.771825257007592, -35.023813425499704 ], [ -9.473110706710312, -35.290191040328246 ], [ -10.0153352730453, -35.497901486001723 ], [ -10.025311073029082, -35.494740689187999 ], [ -10.036127562012634, -35.491313523048902 ], [ -10.130173075530983, -35.524908728928466 ], [ -10.135411808526356, -35.526780124032214 ], [ -10.136260315199999, -35.52708323 ], [ -10.136310403913486, -35.526938523833969 ], [ -10.840263690763486, -35.768692278114948 ], [ -11.416170144333492, -35.635974945141108 ], [ -11.621378322419552, -35.602941785733549 ] ] ] ] } },
{ "type": "Feature", "properties": { "STATE": "AURELYN" }, "geometry": { "type": "MultiPolygon", "coordinates": [ [ [ [ 4.902944487700001, -46.864453671100001 ], [ 3.9769012486, -47.381948422300006 ], [ 3.0100031608, -46.864453671100001 ], [ 3.1734225559, -45.883937300400007 ], [ 2.941911746200001, -45.107695173500005 ], [ 3.2551322535, -44.780856383200003 ], [ 3.8543367023, -44.168033651500004 ], [ 4.9846541852, -44.358689612500001 ], [ 4.9165548881, -45.557855227300003 ], [ 4.902944487700001, -46.864453671100001 ] ] ] ] } },
{ "type": "Feature", "properties": { "STATE": "PORTLAND" }, "geometry": { "type": "MultiPolygon", "coordinates": [ [ [ [ 1.8243310765, -33.585990957600004 ], [ 1.7588450125, -33.644928415200006 ], [ 1.6868103422, -33.585990957600004 ], [ 1.6737131294, -33.664574234300005 ], [ 1.6540673103, -33.474664649 ], [ 1.6147756719, -33.468116042600002 ], [ 1.5296437888, -33.481213255400007 ], [ 1.523095182400001, -33.448470223400001 ], [ 1.5558382144, -33.415727191400002 ], [ 1.536192395200001, -33.402629978700006 ], [ 1.483803544100001, -33.376435553100002 ], [ 1.496900756900001, -33.337143914700007 ], [ 1.483803544100001, -33.324046702 ], [ 1.7457477998, -33.284755063600002 ], [ 1.8767199276, -33.330595308300005 ], [ 1.8767199276, -33.481213255400007 ], [ 1.8243310765, -33.585990957600004 ] ] ], [ [ [ 1.6712877797, -31.349791146100003 ], [ 1.600563940700001, -31.119938669300005 ], [ 1.4344059213, -30.666650507400007 ], [ 1.325272350800001, -30.357438724400005 ], [ 0.4309625222, -30.290842583100002 ], [ 0.067183954, -30.072575442200005 ], [ 1.758487001400001, -29.728888191900005 ], [ 1.763082130600001, -29.720117620100005 ], [ 1.7678487605, -29.717469492300005 ], [ 2.0892073441, -29.538936945900005 ], [ 2.7851882442, -29.210395015800003 ], [ 3.2095312783, -28.998223498800002 ], [ 3.775994044299999, -29.050880803300004 ], [ 4.454652615100001, -29.132145638200001 ], [ 5.3002146041, -29.657960783 ], [ 5.457231735, -30.206058088900001 ], [ 5.743127464700001, -30.992271345500001 ], [ 5.9146649025, -31.535473231800005 ], [ 5.7574222512, -32.121559477600002 ], [ 5.5425063513, -32.897124290200004 ], [ 5.2837785146, -33.061769277200007 ], [ 5.254395188901047, -33.048057058547229 ], [ 5.2538557962, -33.044251246800002 ], [ 5.224882704015277, -33.034284565607301 ], [ 4.976256828065702, -32.948757800771624 ], [ 4.9638417363, -32.912465447400002 ], [ 4.015690544642864, -33.152108056231043 ], [ 3.9078168373, -33.179372839400003 ], [ 3.2845179579, -33.167612483200003 ], [ 2.6612190785, -33.402819607500007 ], [ 2.2731273233, -33.355778182600005 ], [ 2.228410882782862, -33.304754935502963 ], [ 2.1046344403, -33.163521064100003 ], [ 1.770319816300001, -32.728912053 ], [ 1.7368883539, -32.336092369900001 ], [ 1.7105032662, -31.520299073100006 ], [ 1.6712877797, -31.349791146100003 ] ] ] ] } },
{ "type": "Feature", "properties": { "STATE": "PINELAND" }, "geometry": { "type": "MultiPolygon", "coordinates": [ [ [ [ -3.7127402283, -47.994078320600003 ], [ -4.344138816399999, -48.480565757400001 ], [ -5.0479929802, -48.428811774700002 ], [ -5.358516875899999, -48.387408588600003 ], [ -6.6109632556, -47.890570355400001 ], [ -6.7041204243, -47.279873360300002 ], [ -6.2176329876, -46.534616010400001 ], [ -5.6671244422, -45.838306252400002 ], [ -5.307137945199999, -45.429783369900001 ], [ -5.0954515333, -45.958999399600003 ], [ -4.8500180123, -46.132848143700002 ], [ -4.107581611200001, -46.699901841200003 ], [ -3.8176351935, -47.703562517900004 ], [ -3.7127402283, -47.994078320600003 ] ] ] ] } },
{ "type": "Feature", "properties": { "STATE": "ALVAJEA" }, "geometry": { "type": "MultiPolygon", "coordinates": [ [ [ [ 2.873060793200001, -38.364804776900002 ], [ 3.2393062912, -39.147238340700007 ], [ 2.290397501, -38.914173023800004 ], [ 1.607849072900001, -39.014058159700006 ], [ 0.7754729411, -38.772669081400004 ], [ 1.0251857806, -37.956940472300005 ], [ 1.8076193445, -37.773817723300006 ], [ 2.273749978300001, -38.522956241900005 ], [ 2.873060793200001, -38.364804776900002 ] ] ] ] } },
{ "type": "Feature", "properties": { "STATE": "NEW ZALES" }, "geometry": { "type": "MultiPolygon", "coordinates": [ [ [ [ -12.35587314417451, -31.706351706098857 ], [ -12.3952835648, -31.701533931900002 ], [ -12.47584060082823, -31.665238553482972 ], [ -12.782747479812098, -31.604276368972322 ], [ -13.539753712622105, -31.453909085602618 ], [ -13.565159152905403, -31.465202269363012 ], [ -14.193152377143015, -31.423371772293507 ], [ -14.308061339588678, -31.4155222037014 ], [ -14.558703241014033, -31.354128004462268 ], [ -14.828597890148387, -31.285401346308511 ], [ -15.115995748594145, -31.261118064530322 ], [ -15.964394946544761, -31.120748781461852 ], [ -16.181585484499998, -31.084814188200006 ], [ -16.84722651322533, -30.952346310227856 ], [ -16.800184004389322, -30.906928014527072 ], [ -16.640243644286592, -30.279022062282444 ], [ -16.5384120969, -29.868460579600004 ], [ -16.530707232275546, -29.856041596622745 ], [ -16.403777625493213, -29.028504370296886 ], [ -15.230780309941482, -28.821389141040687 ], [ -14.205641048174245, -28.877316441045647 ], [ -14.020640962008724, -28.930206091274641 ], [ -13.898819899899999, -28.987517627500004 ], [ -13.654982284134494, -28.899482802350182 ], [ -13.090902262074708, -28.710122583750245 ], [ -12.525562250644224, -28.681613565895329 ], [ -12.458879224951337, -28.677908953356834 ], [ -12.273648598026647, -28.666795115741355 ], [ -12.214374797410747, -28.674204340818342 ], [ -12.214374797410747, -28.659385890664367 ], [ -11.952230181805227, -28.638054730568633 ], [ -11.580886053328308, -28.640862827971898 ], [ -11.406769264019101, -28.629748990356415 ], [ -11.391950813865126, -28.674204340818342 ], [ -11.306744725479769, -28.637158215433402 ], [ -11.221538637094412, -28.666795115741355 ], [ -11.117809486016586, -28.663090503202859 ], [ -11.10299103586261, -28.670499728279847 ], [ -11.054831072862191, -28.681613565895329 ], [ -11.028898785092736, -28.685318178433821 ], [ -10.999261884784785, -28.685318178433821 ], [ -10.96592037193834, -28.681613565895329 ], [ -10.921465021476415, -28.681613565895329 ], [ -10.810326645321602, -28.689022790972317 ], [ -10.624750441947551, -28.710626173838946 ], [ -10.537415769433382, -28.692486908339895 ], [ -10.429593173212673, -28.710626173838946 ], [ -10.274873897098537, -28.714142521023359 ], [ -10.204546953410293, -28.714142521023359 ], [ -9.990107746428221, -28.742787886669408 ], [ -9.731200053142199, -28.739661913434894 ], [ -9.588404597448331, -28.666881871841277 ], [ -8.969170892179006, -28.556222239476213 ], [ -8.88065374426332, -28.53619662082836 ], [ -8.608281794178398, -28.493919024205407 ], [ -8.061766591300536, -28.825758243451371 ], [ -7.8562521796, -28.975421540500001 ], [ -7.793378402718801, -28.971812197188815 ], [ -7.768189967472707, -28.971812197188815 ], [ -7.685427965949826, -28.971812197188815 ], [ -7.609862660211544, -28.975410545081115 ], [ -7.518120189599999, -28.971086481900002 ], [ -7.336388220396806, -29.090557677634688 ], [ -7.307216540817406, -29.120478978814692 ], [ -7.289042438776114, -29.12593120942708 ], [ -7.269050926530692, -29.140470491060114 ], [ -7.254511644897658, -29.15137495228489 ], [ -7.227250491835719, -29.173183874734441 ], [ -7.196354518365521, -29.187723156367475 ], [ -7.17272818571184, -29.216801719633544 ], [ -7.1402038402, -29.233984811900001 ], [ -7.072585094185823, -29.290032110045363 ], [ -7.001562299542408, -29.331547315577165 ], [ -6.918109313513604, -29.400102582086024 ], [ -6.863030145847279, -29.44968354282253 ], [ -6.812476358703305, -29.483879921760739 ], [ -6.766202509446729, -29.519913591997668 ], [ -6.718879747244206, -29.55631571676884 ], [ -6.704866771718638, -29.56862600605303 ], [ -6.682477622473035, -29.583010608267696 ], [ -6.65092911433802, -29.604851883130401 ], [ -6.636368264429552, -29.612132308084632 ], [ -6.629087839475318, -29.619412733038867 ], [ -6.620594010362044, -29.626693157993103 ], [ -6.591472310545107, -29.647321028696766 ], [ -6.485429531399999, -29.723786000700002 ], [ -6.447059202843104, -29.739492032697189 ], [ -6.441092782964018, -29.749720181061335 ], [ -6.420636486235724, -29.757391292334447 ], [ -6.415522412053651, -29.760800675122496 ], [ -6.405294263689504, -29.771881169183654 ], [ -6.395066115325356, -29.776995243365729 ], [ -6.385690312658221, -29.780404626153778 ], [ -6.376314509991087, -29.785518700335853 ], [ -6.341368336413583, -29.825578948095426 ], [ -6.304717471442056, -29.831545367974513 ], [ -6.180749751242678, -29.904425494173196 ], [ -6.051897018072951, -30.005800521293544 ], [ -6.00758952396767, -30.047166435337761 ], [ -5.864338783410904, -30.136438635974585 ], [ -5.853958294964762, -30.1738083943807 ], [ -5.808206028531795, -30.194676076319659 ], [ -5.613130963014259, -30.323287428005148 ], [ -5.579913399986603, -30.356504991032804 ], [ -5.521782664688207, -30.416711824020432 ], [ -5.480260710903637, -30.4291684101558 ], [ -5.397216803334498, -30.489375243143428 ], [ -5.059074918714145, -30.772745708657435 ], [ -4.684846825699999, -30.984193894700006 ], [ -4.683317988971646, -31.074378765946349 ], [ -4.831047794438417, -32.011657365323032 ], [ -4.6723026216, -32.465974607500002 ], [ -5.9674901847, -32.759553643800004 ], [ -6.326124263262945, -32.722779623044019 ], [ -7.078725809503743, -32.589107340592349 ], [ -7.382001078390679, -32.501153882639414 ], [ -7.801296788, -32.379553108200007 ], [ -7.952313737361933, -32.436293431796301 ], [ -9.566600981720955, -32.14271107297062 ], [ -10.405906013357557, -31.990070858644962 ], [ -12.266830618174383, -31.717236816624336 ], [ -12.35587314417451, -31.706351706098857 ] ] ] ] } },
{ "type": "Feature", "properties": { "STATE": "ARDENLAND" }, "geometry": { "type": "MultiPolygon", "coordinates": [ [ [ [ -20.04671635478563, -36.501921967688311 ], [ -20.220935573032488, -36.448627134041161 ], [ -21.1237949458, -36.172436363800003 ], [ -20.108436385499999, -36.133593819300003 ], [ -20.108436385499999, -36.096376688600003 ], [ -19.785837667544719, -36.066556639083693 ], [ -19.501645830439486, -36.040286805439209 ], [ -19.4781426863, -36.038114245900005 ], [ -19.475745164300001, -36.037892626200005 ], [ -19.291726441522052, -36.022174880042137 ], [ -18.922677619729797, -35.987109837418188 ], [ -18.647385740572162, -35.964968846050134 ], [ -18.3873248413, -35.926368492100003 ], [ -18.463832714860452, -36.264063863581143 ], [ -18.488300927513372, -36.372063233799935 ], [ -18.690457740565471, -36.424727330566611 ], [ -19.534229226800001, -36.644000182600003 ], [ -19.691086207810049, -36.600514290679278 ], [ -20.04671635478563, -36.501921967688311 ] ] ] ] } },
{ "type": "Feature", "properties": { "STATE": "BAYBAR" }, "geometry": { "type": "MultiPolygon", "coordinates": [ [ [ [ -13.604945670141483, -45.887554364765812 ], [ -13.444957469199998, -45.825268944600005 ], [ -12.980882127003088, -45.515014273467507 ], [ -12.805467360845489, -45.379730895975158 ], [ -12.496568620493218, -45.141502006735344 ], [ -12.320834568914096, -45.005972389937412 ], [ -12.281993654625813, -44.976017499679834 ], [ -12.065390802483279, -44.844064038047307 ], [ -11.979027277527333, -44.791451775724809 ], [ -11.775340740426568, -44.66736687382933 ], [ -11.006399738703927, -44.214771731034915 ], [ -10.294478851341397, -43.608984138390383 ], [ -10.26240711245276, -43.637978347632988 ], [ -10.257189024570955, -43.642695719909455 ], [ -10.182117083001703, -43.708816546167306 ], [ -9.462131252599999, -43.268259809400007 ], [ -9.207174949900001, -43.113397462600005 ], [ -8.6698327528, -42.787011831800001 ], [ -8.008360912302233, -42.379741473029028 ], [ -7.744906950202233, -42.401695969829028 ], [ -7.440149172522551, -42.397834400777299 ], [ -7.41782978858893, -42.399431981193906 ], [ -6.9564066203, -42.059856702200001 ], [ -6.404921514170634, -42.137081081598943 ], [ -6.077385179930102, -42.182945946961951 ], [ -5.581743519226343, -42.252350576800005 ], [ -6.0248638994, -42.704073741200006 ], [ -6.6795105703, -43.500560524200004 ], [ -6.885808478422399, -43.892971950299419 ], [ -7.143298652751435, -44.364412258420707 ], [ -7.5111332519, -44.744553041700001 ], [ -7.3860947385, -45.057149325300003 ], [ -9.914969454, -45.841972512900007 ], [ -10.987733306043442, -46.63638221428981 ], [ -12.869245062299999, -46.918061581700002 ], [ -12.782834686899999, -47.090882332400007 ], [ -13.00800257775559, -47.324065869960641 ], [ -15.163937398587588, -46.926374723549877 ], [ -13.604945670141483, -45.887554364765812 ] ] ], [ [ [ -5.151425920929103, -42.248325647327441 ], [ -5.154720106119592, -42.340562832661149 ], [ -5.197544513595955, -42.370210499375553 ], [ -5.240368921072317, -42.320797721518211 ], [ -5.299664254501126, -42.307620980756255 ], [ -5.362253773120424, -42.294444239994299 ], [ -5.38531306945385, -42.251619832517932 ], [ -5.368842143501403, -42.208795425041572 ], [ -5.342488661977487, -42.182441943517652 ], [ -5.408372365787276, -42.119852424898355 ], [ -5.376054825305648, -42.130672056346107 ], [ -5.335900291596509, -42.136323350850802 ], [ -5.302958439691615, -42.165971017565212 ], [ -5.267935863843344, -42.250005416826724 ], [ -5.237074735881826, -42.277973314041851 ], [ -5.151425920929103, -42.248325647327441 ] ] ] ] } },
{ "type": "Feature", "properties": { "STATE": "DENBURG" }, "geometry": { "type": "MultiPolygon", "coordinates": [ [ [ [ -33.864010467199996, -48.521993433 ], [ -34.931818959048172, -48.030492118687135 ], [ -35.345323497914762, -47.218452208600247 ], [ -35.351703110700001, -47.210477692600001 ], [ -35.234384368599997, -46.335919797 ], [ -34.99976878584912, -45.897290663960277 ], [ -34.434483854299998, -44.576138665400002 ], [ -33.439684631600002, -44.469476286200006 ], [ -32.491970968, -44.880946386400005 ], [ -32.040345032041785, -44.989960973469174 ], [ -31.665243537792595, -44.981864723182397 ], [ -31.408075283599999, -45.137106780900005 ], [ -30.591123847600002, -45.374454977100001 ], [ -29.983126827299998, -45.527220001600007 ], [ -29.108083436599998, -45.741119497100001 ], [ -28.6802844457, -45.916128175200001 ], [ -27.299660429299998, -46.168918488100005 ], [ -26.921831092600002, -46.461871284700003 ], [ -26.7007638159, -46.507327506700001 ], [ -25.601928480799998, -47.025879013200004 ], [ -25.7471637678, -47.150314705700005 ], [ -26.141803366, -47.565366971100005 ], [ -26.360421187500002, -47.631977391 ], [ -28.438814816932599, -47.982187599244703 ], [ -28.438173932292997, -47.982420534692316 ], [ -30.588307985829921, -48.250766030257125 ], [ -32.389239471, -48.444638579100001 ], [ -33.864010467199996, -48.521993433 ] ], [ [ -31.408075283599999, -45.137106780900005 ], [ -31.030033540769448, -45.232846915624187 ], [ -31.408075283599999, -45.137106780900005 ], [ -31.408075283599999, -45.137106780900005 ] ] ], [ [ [ -32.291025537199999, -44.624992805800005 ], [ -32.317738294199998, -44.705131076800001 ], [ -32.629387125800001, -44.589375796500001 ], [ -32.736238153800002, -44.482524768500006 ], [ -32.985557219100002, -44.455812011500001 ], [ -33.154738013399999, -44.233205703200007 ], [ -33.128025256400001, -43.698950563300002 ], [ -32.949940209700003, -43.752376077300006 ], [ -32.843089181799996, -43.779088834300005 ], [ -32.816376424799998, -43.841418600600001 ], [ -32.665004135099998, -43.966078133300002 ], [ -32.469110583800003, -43.894844114600005 ], [ -32.362259555800001, -44.081833413600002 ], [ -32.299929789499998, -44.179780189200002 ], [ -32.228695770899996, -44.277726964900005 ], [ -32.0238979672, -44.420195002200003 ], [ -31.934855443899998, -44.473620516200008 ], [ -32.771532210899998, -44.164693709900007 ], [ -32.647195630500001, -44.277726964900005 ], [ -32.540344602499999, -44.313343974200002 ], [ -32.380068060500001, -44.438003506900003 ], [ -32.3889723128, -44.509237525500005 ], [ -32.291025537199999, -44.624992805800005 ] ] ], [ [ [ -33.438828927199999, -43.983241941500005 ], [ -33.438828927199999, -43.913183676300001 ], [ -33.3897881416, -43.913183676300001 ], [ -33.333741529500003, -43.962224461900007 ], [ -33.354759009, -44.067311859700006 ], [ -33.3897881416, -44.172399257400002 ], [ -33.291706570400002, -44.20742839 ], [ -33.403799794699999, -44.277486655200001 ], [ -33.354759009, -44.277486655200001 ], [ -33.424817274200002, -44.298504134700003 ], [ -33.403799794699999, -44.354550746900003 ], [ -33.439684631600002, -44.469476286200006 ], [ -33.564933804500001, -44.403591532500002 ], [ -33.627986243199999, -44.361556573400001 ], [ -33.613974590200002, -44.298504134700003 ], [ -33.663015375800001, -44.270480828700002 ], [ -33.782114426600003, -44.214434216500003 ], [ -33.782114426600003, -44.165393430900004 ], [ -33.747085294, -44.158387604400005 ], [ -33.747085294, -44.116352645300005 ], [ -33.656009549300002, -44.067311859700006 ], [ -33.641997896200003, -43.941206982300002 ], [ -33.649003722799996, -43.927195329300005 ], [ -33.747085294, -43.871148717200008 ], [ -33.824149385699997, -43.787078799 ], [ -33.529904672, -43.871148717200008 ], [ -33.438828927199999, -43.983241941500005 ] ] ], [ [ [ -28.387500311237588, -48.036710411346945 ], [ -28.438173932292997, -47.982420534692316 ], [ -28.382514774809657, -48.028656852501825 ], [ -28.365525871074546, -48.025782827354483 ], [ -28.387500311237588, -48.036710411346945 ] ] ] ] } },
{ "type": "Feature", "properties": { "STATE": "UGHAMPTON" }, "geometry": { "type": "MultiPolygon", "coordinates": [ [ [ [ -7.5557108278, -36.858744835300001 ], [ -7.555737291166691, -36.859194132452672 ], [ -8.3003870359, -36.714747246700007 ], [ -8.330456597058065, -36.710934328779331 ], [ -8.33016879836971, -36.708703389855728 ], [ -8.759086574299999, -36.631816508400007 ], [ -9.488176985732601, -36.563664959808243 ], [ -9.491443426, -36.563359630100003 ], [ -9.493744152965046, -36.558288808911634 ], [ -9.527190365396155, -36.491370317560261 ], [ -10.941879316351063, -36.207571122867051 ], [ -10.840263690763486, -35.768692278114948 ], [ -10.136310403913486, -35.526938523833969 ], [ -10.136260315199999, -35.52708323 ], [ -10.135411808526356, -35.526780124032214 ], [ -10.130173075530983, -35.524908728928466 ], [ -10.036127562012634, -35.491313523048902 ], [ -9.473110706710312, -35.290191040328246 ], [ -8.771825257007592, -35.023813425499704 ], [ -8.770912382020823, -35.023466677307916 ], [ -8.4431026849518, -34.986025224730085 ], [ -8.921995449553147, -34.484662998446112 ], [ -8.924864647894285, -34.484547794427492 ], [ -8.909027895882742, -33.959089483174289 ], [ -8.907171271760163, -33.409310995323118 ], [ -8.886275015399999, -33.411142490600007 ], [ -8.8562223821, -32.819886229500007 ], [ -10.052348682652271, -32.189429170836149 ], [ -10.0668291849, -32.181157747100002 ], [ -10.067010025900315, -32.181320415608774 ], [ -10.081547633165261, -32.173431658348726 ], [ -10.218913724821142, -32.098890660433128 ], [ -10.405906013357557, -31.990070858644962 ], [ -9.566600981720955, -32.14271107297062 ], [ -7.952313737361933, -32.436293431796301 ], [ -7.801296788, -32.379553108200007 ], [ -7.382001078390679, -32.501153882639414 ], [ -7.078725809503743, -32.589107340592349 ], [ -6.326124263262945, -32.722779623044019 ], [ -5.9674901847, -32.759553643800004 ], [ -4.6723026216, -32.465974607500002 ], [ -4.67914425421146, -32.798610436999041 ], [ -4.649053632299999, -33.797908316200001 ], [ -4.798100368760632, -34.663264116141335 ], [ -4.6480839575, -35.715160457800003 ], [ -4.6783841626, -36.771812141100007 ], [ -5.6848889427, -36.821876833300003 ], [ -6.271036423971822, -36.88956684472118 ], [ -6.77215031, -36.947436929900007 ], [ -7.2930455607, -36.866961853600003 ], [ -7.5557108278, -36.858744835300001 ] ] ] ] } },
{ "type": "Feature", "properties": { "STATE": "FRELANDIA" }, "geometry": { "type": "MultiPolygon", "coordinates": [ [ [ [ -12.920501911199999, -50.415809285400002 ], [ -14.0624058586, -50.300499962300002 ], [ -16.646259752500001, -50.036478258200006 ], [ -15.3813413132, -50.004738929700004 ], [ -14.0694856402, -49.894899548300003 ], [ -13.579330779, -49.751102532700003 ], [ -12.849095629699999, -49.525834139700002 ], [ -12.5505667267, -49.472322823 ], [ -10.9533791942, -49.106340484300006 ], [ -11.119116764099999, -49.572918006600005 ], [ -11.299568753699795, -49.631908321447348 ], [ -11.1395721843, -49.688300605900004 ], [ -11.064184774099999, -49.863107500200002 ], [ -11.2571427752, -49.979697386 ], [ -11.292825391699999, -49.917419233200008 ], [ -11.3741327364, -49.943998856200004 ], [ -11.278437973599999, -50.020954741900006 ], [ -11.397584180799999, -50.041904745300002 ], [ -11.423285718599999, -50.010902869700004 ], [ -11.492181337, -50.027830696 ], [ -11.5608025538, -50.060478981300001 ], [ -11.6332264263, -50.055453045200004 ], [ -11.637523005, -49.989481997300004 ], [ -11.549049391400001, -50.013098082800006 ], [ -11.4992927256, -49.980779079300007 ], [ -11.5686822669, -49.969410079200003 ], [ -11.5761778177, -49.900349819900001 ], [ -11.4015355643, -49.815530134300005 ], [ -11.269922750599999, -49.788072426 ], [ -11.273286363699999, -49.775550939 ], [ -11.465295486, -49.766322271700005 ], [ -11.487674394344975, -49.693400638549697 ], [ -11.9931978067, -49.858657809300006 ], [ -12.345118337900001, -50.173923646600002 ], [ -10.9553311782, -50.101364346300002 ], [ -10.383824628099999, -49.637364195 ], [ -9.108188761, -49.112772945600007 ], [ -9.304246318800001, -49.502598945 ], [ -9.7971471174, -50.042507788100004 ], [ -10.611093882799999, -50.452779178700006 ], [ -12.311764157799999, -50.424503918500001 ], [ -12.920501911199999, -50.415809285400002 ] ] ], [ [ [ -8.8671093929, -49.369065894200006 ], [ -8.7938638818, -49.460510073400002 ], [ -9.038240138699999, -49.464775676900004 ], [ -9.064329434899999, -49.418869725 ], [ -9.0397110365, -49.380508002 ], [ -9.099433857699999, -49.339403793 ], [ -8.9562310302, -49.092453465 ], [ -8.812019899499999, -49.144726927500002 ], [ -8.9067949238, -49.268606588400004 ], [ -8.8475133719, -49.284430494900008 ], [ -8.8671093929, -49.369065894200006 ] ] ] ] } },
{ "type": "Feature", "properties": { "STATE": "WEST VILLE" }, "geometry": { "type": "MultiPolygon", "coordinates": [ [ [ [ -15.366141300199999, -34.984845973700004 ], [ -16.276018741759607, -35.323921543627954 ], [ -16.34532756764731, -34.541978130258151 ], [ -16.379992203436487, -34.55067775928638 ], [ -16.3810743921, -34.542602093400006 ], [ -16.360057126932759, -34.374096899308398 ], [ -16.415769303893462, -33.83029482662198 ], [ -16.4345492458, -33.525067517700002 ], [ -16.441445095138171, -33.525187885198036 ], [ -16.445549360271386, -33.422250730744629 ], [ -16.492228450402397, -32.976944930107592 ], [ -16.508822694438901, -32.747932148207106 ], [ -16.540666162318974, -32.359898177085157 ], [ -16.573303784499998, -31.653965683300001 ], [ -18.497911303599999, -31.119857504100004 ], [ -17.398659164400001, -31.019113643700003 ], [ -16.896207594467189, -30.99963624621622 ], [ -16.84722651322533, -30.952346310227856 ], [ -16.181585484499998, -31.084814188200006 ], [ -15.964394946544761, -31.120748781461852 ], [ -15.115995748594145, -31.261118064530322 ], [ -14.828597890148387, -31.285401346308511 ], [ -14.558703241014033, -31.354128004462268 ], [ -14.308061339588678, -31.4155222037014 ], [ -14.193152377143015, -31.423371772293507 ], [ -13.565159152905403, -31.465202269363012 ], [ -13.539753712622105, -31.453909085602618 ], [ -12.782747479812098, -31.604276368972322 ], [ -12.47584060082823, -31.665238553482972 ], [ -12.35587314417451, -31.706351706098857 ], [ -12.266830618174383, -31.717236816624336 ], [ -10.405906013357557, -31.990070858644962 ], [ -11.889873409470496, -32.696349195649937 ], [ -12.393632992699999, -32.946629037400001 ], [ -13.159495434529932, -33.254044260198967 ], [ -13.567824553641398, -33.470438132395564 ], [ -14.187203805499999, -33.741076397300006 ], [ -14.317262521267809, -34.241532775764995 ], [ -14.448566511500001, -34.564639876499996 ], [ -15.366141300199999, -34.984845973700004 ] ] ] ] } },
{ "type": "Feature", "properties": { "STATE": "ARSELLIA" }, "geometry": { "type": "MultiPolygon", "coordinates": [ [ [ [ -22.975249706712734, -37.164341118823465 ], [ -22.992308267028658, -37.093431024962285 ], [ -23.222335299699999, -36.137240222500004 ], [ -23.275728911199998, -35.915290307800007 ], [ -23.283563970499998, -35.918106032300003 ], [ -22.749340739359369, -35.353026214942979 ], [ -22.673779498649807, -35.354793097607867 ], [ -22.343537559743552, -35.362515294220756 ], [ -22.343451262, -35.364890355400007 ], [ -21.854857624325831, -35.381290773459583 ], [ -21.829353033548212, -35.327722491241985 ], [ -21.39039922752632, -35.157244387933396 ], [ -21.388483009, -35.156500179100007 ], [ -20.841699694244191, -34.975649912431287 ], [ -21.104828005688567, -36.029929051886739 ], [ -21.1237949458, -36.172436363800003 ], [ -21.112749005585236, -36.639885358659711 ], [ -21.106270945848646, -36.914027935356188 ], [ -21.100198946349252, -37.170986601399512 ], [ -21.044216697586755, -37.925708510012221 ], [ -21.044954465527407, -38.005960317521499 ], [ -21.045664769060615, -38.083224643170574 ], [ -21.040239353182606, -38.260130149844045 ], [ -21.046940056509463, -38.404470465311427 ], [ -21.033729756672091, -38.60602089725645 ], [ -21.0260274197, -38.723535969800004 ], [ -20.319467522034167, -39.103646443056036 ], [ -19.4875592434, -39.551191018600001 ], [ -19.494012818825887, -39.536713389772004 ], [ -19.066052396, -39.783227584 ], [ -18.988024991099998, -39.778508049700001 ], [ -18.703513777575687, -40.113111634136821 ], [ -18.458339679894856, -40.413238546832915 ], [ -18.460291261965242, -40.413908945597022 ], [ -17.964147284699997, -41.022801285100002 ], [ -18.932330423051127, -40.889381157465159 ], [ -19.110817867125178, -40.870331010347591 ], [ -19.917796081899688, -40.785012172479107 ], [ -20.303123063884843, -40.754804811856623 ], [ -21.499630736879396, -40.662719376888944 ], [ -22.1903723671, -40.609558628400002 ], [ -22.375213937, -39.733260834600003 ], [ -22.4506965659, -39.340821012900001 ], [ -22.536054081099998, -39.022378758400002 ], [ -22.6045963782, -38.713938421400002 ], [ -22.606867579799999, -38.703718014 ], [ -22.621903419700001, -38.692691731400004 ], [ -22.695501999599998, -38.275633111800005 ], [ -22.822611568699998, -37.798836908200002 ], [ -22.975249706712734, -37.164341118823465 ] ], [ [ -22.138095490600001, -36.840126412499998 ], [ -22.1032617786, -36.832416151700002 ], [ -22.106347975799999, -36.828174473799997 ], [ -22.138095490600001, -36.840126412499998 ] ] ] ] } },
{ "type": "Feature", "properties": { "STATE": "AURELIA" }, "geometry": { "type": "MultiPolygon", "coordinates": [ [ [ [ -25.939851828800002, -39.765649077600003 ], [ -26.554720134900002, -39.730513745800003 ], [ -26.979601127400002, -37.747735780900001 ], [ -27.050414626200002, -37.252041289700003 ], [ -26.908787628699997, -36.030508436300003 ], [ -26.905757183360187, -36.013856440601522 ], [ -26.663884924281049, -35.086917661164065 ], [ -26.157410036582988, -35.025103185996912 ], [ -26.102352470500001, -35.064051041700004 ], [ -25.877466399309498, -35.043662709987629 ], [ -25.653299930495699, -34.985371816326591 ], [ -25.641056993492626, -34.984833146779216 ], [ -25.640022550799998, -34.981729818700003 ], [ -25.258742759067708, -34.920888505222564 ], [ -25.18817908, -34.910511493600005 ], [ -25.164817452199998, -34.909051391900007 ], [ -24.856040780395638, -34.861826724404949 ], [ -24.364058491499996, -34.786582374300004 ], [ -24.311601875210521, -34.806539559158281 ], [ -24.311601875210521, -34.806539559158281 ], [ -22.749340739359369, -35.353026214942979 ], [ -23.283563970499998, -35.918106032300003 ], [ -23.275728911199998, -35.915290307800007 ], [ -23.222335299699999, -36.137240222500004 ], [ -22.992308267028658, -37.093431024962285 ], [ -22.975249706712734, -37.164341118823465 ], [ -22.822611568699998, -37.798836908200002 ], [ -22.695501999599998, -38.275633111800005 ], [ -22.621903419700001, -38.692691731400004 ], [ -22.606867579799999, -38.703718014 ], [ -22.6045963782, -38.713938421400002 ], [ -22.536054081099998, -39.022378758400002 ], [ -22.4506965659, -39.340821012900001 ], [ -22.375213937, -39.733260834600003 ], [ -22.1903723671, -40.609558628400002 ], [ -22.809392621493757, -40.826669202501392 ], [ -22.888813035846894, -40.854524529743415 ], [ -22.889038053347313, -40.854054014397505 ], [ -23.244002914100001, -40.999984012700004 ], [ -23.602398998399998, -41.135546383400005 ], [ -23.978419098855291, -41.277241078652708 ], [ -24.173446938482371, -41.351351264248507 ], [ -24.174301959338599, -41.351676170448897 ], [ -24.789359758132512, -41.324488575765841 ], [ -24.808264207114831, -41.323154747615121 ], [ -24.816156989671519, -41.320379752530343 ], [ -25.939851828800002, -39.765649077600003 ] ] ] ] } },
{ "type": "Feature", "properties": { "STATE": "ORVILLE" }, "geometry": { "type": "MultiPolygon", "coordinates": [ [ [ [ -21.104828005688567, -36.029929051886739 ], [ -20.841699694244191, -34.975649912431287 ], [ -20.926248835395754, -34.342163450597504 ], [ -20.936699582862744, -34.101084690177714 ], [ -20.920203499284675, -34.047055218745811 ], [ -20.97051707405021, -33.574857852686073 ], [ -21.0448254155, -32.898851163373287 ], [ -21.060129750242758, -32.743896122936164 ], [ -21.086608811838346, -32.475797957988277 ], [ -21.091996312888991, -32.421249984672912 ], [ -21.198932733199999, -31.893932128700001 ], [ -21.212592094, -31.814738843600004 ], [ -21.215743443198889, -30.930847198969012 ], [ -21.2145010586, -30.764556205700003 ], [ -20.957696631028348, -30.822421565382314 ], [ -19.919735963174197, -30.99349236378918 ], [ -19.323072783129298, -31.00533069134093 ], [ -19.305622369012404, -31.005462296152494 ], [ -18.884203921360935, -31.009964140519344 ], [ -18.574093396881572, -31.116026912909916 ], [ -18.497911303599999, -31.119857504100004 ], [ -16.573303784499998, -31.653965683300001 ], [ -16.540666162318974, -32.359898177085157 ], [ -16.508822694438901, -32.747932148207106 ], [ -16.492228450402397, -32.976944930107592 ], [ -16.445549360271386, -33.422250730744629 ], [ -16.441445095138171, -33.525187885198036 ], [ -16.4345492458, -33.525067517700002 ], [ -16.415769303893462, -33.83029482662198 ], [ -16.360057126932759, -34.374096899308398 ], [ -16.3810743921, -34.542602093400006 ], [ -16.379992203436487, -34.55067775928638 ], [ -16.34532756764731, -34.541978130258151 ], [ -16.276018741759607, -35.323921543627954 ], [ -16.93934256916252, -35.598583911585386 ], [ -17.077362210099999, -35.630715495100006 ], [ -17.217646051554084, -35.677967595698355 ], [ -17.287988003927389, -35.701661023076554 ], [ -17.611457489670507, -35.810615928519695 ], [ -17.714486241323165, -35.827755335472986 ], [ -17.958831285372568, -35.863567246532654 ], [ -18.20001932486301, -35.89891645794183 ], [ -18.371520402884904, -35.924052148238516 ], [ -18.3873248413, -35.926368492100003 ], [ -18.647385740572162, -35.964968846050134 ], [ -18.922677619729797, -35.987109837418188 ], [ -19.291726441522052, -36.022174880042137 ], [ -19.475745164300001, -36.037892626200005 ], [ -19.4781426863, -36.038114245900005 ], [ -19.501645830439486, -36.040286805439209 ], [ -19.785837667544719, -36.066556639083693 ], [ -20.108436385499999, -36.096376688600003 ], [ -20.108436385499999, -36.133593819300003 ], [ -21.1237949458, -36.172436363800003 ], [ -21.104828005688567, -36.029929051886739 ] ] ] ] } },
{ "type": "Feature", "properties": { "STATE": "NOVA" }, "geometry": { "type": "MultiPolygon", "coordinates": [ [ [ [ -16.229090006656509, -46.23138788407698 ], [ -17.125401222699999, -45.593373045300005 ], [ -17.136271880399999, -45.533090307100004 ], [ -17.172114081380773, -45.138017052615652 ], [ -17.24262173, -44.952436204500003 ], [ -17.250499954600002, -44.685564324900007 ], [ -17.408664776039185, -44.126235692329608 ], [ -17.447230671864297, -43.989852585268061 ], [ -17.448907139756855, -43.973417955037498 ], [ -17.540887279524142, -43.071724822507178 ], [ -17.617358928429315, -42.816397801821552 ], [ -17.809249254305335, -41.889573448320284 ], [ -17.831915890167402, -41.787744152769271 ], [ -17.841488232069633, -41.731722792819646 ], [ -17.8955535196, -41.415310052400002 ], [ -17.964147284699997, -41.022801285100002 ], [ -17.762738373211661, -40.988586980010027 ], [ -17.693114505800001, -40.976759637200004 ], [ -17.554159913682803, -40.948932682159196 ], [ -16.722630518499997, -40.790145589900007 ], [ -15.92356280133383, -40.622390379068335 ], [ -15.771207819503488, -40.572248629381477 ], [ -15.608206834099999, -40.569403436600005 ], [ -15.388595331068448, -40.514277040230112 ], [ -14.435473601, -40.369864656900006 ], [ -14.4269243693, -40.320469095800007 ], [ -14.401443554717424, -40.317316830077957 ], [ -13.432863138289083, -40.197492448645249 ], [ -12.946379107, -40.137925458400005 ], [ -12.047870388089954, -39.985680839345548 ], [ -11.787215150939732, -39.943883674616622 ], [ -12.102647246011466, -40.465447416715335 ], [ -12.433108768343541, -41.028767475445285 ], [ -12.428252253143542, -41.036399142145285 ], [ -12.45578164700699, -41.149437463409903 ], [ -12.6254582364, -41.414538062399998 ], [ -13.025257518139414, -42.095311008501518 ], [ -13.184806431088507, -42.366988794022021 ], [ -13.365006814057985, -42.673831630429895 ], [ -13.6696480858666, -43.202446387351948 ], [ -13.744874852346809, -43.31544539374093 ], [ -13.959111826319663, -43.637253259789297 ], [ -14.064539420900001, -43.781948208300001 ], [ -14.095965744400001, -43.871737704100006 ], [ -14.299880272, -44.239670438600001 ], [ -14.447236244132993, -44.43758435912148 ], [ -14.447242103400001, -44.437597054200005 ], [ -14.447700829199999, -44.438590960100001 ], [ -14.465429381027015, -44.47700282239586 ], [ -14.595548941401479, -44.759558655496591 ], [ -14.755629222855946, -45.064930725553907 ], [ -14.983835831510756, -45.442596591989684 ], [ -14.984259898024639, -45.463345851952852 ], [ -14.991359043, -45.491742431800006 ], [ -15.072644048099999, -45.564914272700001 ], [ -15.115336306858053, -45.650298790216112 ], [ -15.188328565373752, -45.73885851643027 ], [ -15.244825236626189, -45.782340856589371 ], [ -15.504564941475028, -46.20636810387002 ], [ -16.229090006656509, -46.23138788407698 ] ] ] ] } },
{ "type": "Feature", "properties": { "STATE": "WESTVALE" }, "geometry": { "type": "MultiPolygon", "coordinates": [ [ [ [ -4.699194759818683, -39.692316471652468 ], [ -4.88714520324246, -40.150445677497927 ], [ -4.6638864859, -40.381849371400001 ], [ -4.66699668198059, -40.382683032205065 ], [ -4.667000593399795, -40.38450057102829 ], [ -4.766894228704563, -40.46954515243916 ], [ -5.972839292064756, -40.732702700869815 ], [ -6.231139099, -40.789068074400006 ], [ -6.317234610362099, -40.778513154399505 ], [ -7.233228930122804, -40.666216396844646 ], [ -7.8616773492, -40.589171465200003 ], [ -7.8634206928, -40.489295375200001 ], [ -8.950529209299999, -40.351274964800005 ], [ -9.249097405299999, -40.365296263400005 ], [ -9.315309837399999, -40.332190047400005 ], [ -10.740907547544541, -40.117583940464662 ], [ -10.854748882499999, -40.100446535200007 ], [ -11.610143905762026, -39.960558567954301 ], [ -11.787215150939732, -39.943883674616622 ], [ -11.427150325992939, -39.746752784793252 ], [ -11.217825792099999, -39.648688053 ], [ -11.194615757106199, -39.638716703516316 ], [ -10.5819638099, -39.373980845600002 ], [ -10.442391723563183, -39.305364916825575 ], [ -9.9905586625, -39.103530173 ], [ -9.991065587943933, -39.10220842236464 ], [ -9.877710288477658, -39.053513653720337 ], [ -8.367281608499999, -38.338167404200007 ], [ -8.536738065182378, -38.282801800025304 ], [ -8.552748600778175, -38.277570763133724 ], [ -9.648996686959453, -37.819844079655041 ], [ -9.752449520299999, -37.842090285300003 ], [ -10.844305682402515, -37.488583614290256 ], [ -10.943536690064194, -37.483490891844738 ], [ -11.015846436448211, -37.43564707501082 ], [ -11.263794793700001, -37.225512802800004 ], [ -11.272655564145499, -37.217103719960313 ], [ -11.28189755239441, -37.20833285231776 ], [ -11.76449932570738, -36.750332239918293 ], [ -11.5434597871, -36.528725171900007 ], [ -10.941879316351063, -36.207571122867051 ], [ -9.559737649990879, -36.426250382465994 ], [ -9.527190365396155, -36.491370317560261 ], [ -9.493744152965046, -36.558288808911634 ], [ -9.491443426, -36.563359630100003 ], [ -9.488176985732601, -36.563664959808243 ], [ -8.759086574299999, -36.631816508400007 ], [ -8.33016879836971, -36.708703389855728 ], [ -7.5557108278, -36.858744835300001 ], [ -7.2930455607, -36.866961853600003 ], [ -6.77215031, -36.947436929900007 ], [ -6.271036423971822, -36.88956684472118 ], [ -5.6848889427, -36.821876833300003 ], [ -4.6783841626, -36.771812141100007 ], [ -4.82841068967253, -37.448658053281129 ], [ -4.898892105956446, -37.883293453698613 ], [ -4.764664287531157, -38.96641067095014 ], [ -4.699194759818683, -39.692316471652468 ] ] ] ] } },
{ "type": "Feature", "properties": { "STATE": "ORLAY" }, "geometry": { "type": "MultiPolygon", "coordinates": [ [ [ [ -17.977700408733828, -39.231795321978005 ], [ -18.037720081467267, -39.264273517173685 ], [ -18.424248653712869, -39.473434111465046 ], [ -18.458785716220568, -39.492123008063871 ], [ -18.988024991099998, -39.778508049700001 ], [ -19.066052396, -39.783227584 ], [ -19.494012818825887, -39.536713389772004 ], [ -19.4875592434, -39.551191018600001 ], [ -20.319467522034167, -39.103646443056036 ], [ -21.0260274197, -38.723535969800004 ], [ -21.033729756672091, -38.60602089725645 ], [ -21.046940056509463, -38.404470465311427 ], [ -21.040239353182606, -38.260130149844045 ], [ -21.045664769060615, -38.083224643170574 ], [ -21.044954465527407, -38.005960317521499 ], [ -21.044216697586755, -37.925708510012221 ], [ -21.100198946349252, -37.170986601399512 ], [ -21.106270945848646, -36.914027935356188 ], [ -21.112749005585236, -36.639885358659711 ], [ -21.1237949458, -36.172436363800003 ], [ -20.220935573032488, -36.448627134041161 ], [ -20.04671635478563, -36.501921967688311 ], [ -19.691086207810049, -36.600514290679278 ], [ -19.534229226800001, -36.644000182600003 ], [ -18.690457740565471, -36.424727330566611 ], [ -18.488300927513372, -36.372063233799935 ], [ -18.463832714860452, -36.264063863581143 ], [ -18.3873248413, -35.926368492100003 ], [ -18.371520402884904, -35.924052148238516 ], [ -18.20001932486301, -35.89891645794183 ], [ -17.958831285372568, -35.863567246532654 ], [ -17.714486241323165, -35.827755335472986 ], [ -17.611457489670507, -35.810615928519695 ], [ -17.287988003927389, -35.701661023076554 ], [ -17.217646051554084, -35.677967595698355 ], [ -17.077362210099999, -35.630715495100006 ], [ -16.93934256916252, -35.598583911585386 ], [ -16.276018741759607, -35.323921543627954 ], [ -15.366141300199999, -34.984845973700004 ], [ -14.448566511500001, -34.564639876499996 ], [ -13.41595814495313, -35.208939764232703 ], [ -13.170820940483964, -35.256768412348407 ], [ -12.4171946387, -35.414363644500007 ], [ -12.331904618401587, -35.427578505206142 ], [ -11.424425714648823, -35.568183552137668 ], [ -11.142393635588693, -35.665418049233224 ], [ -10.840263690763486, -35.768692278114948 ], [ -10.941879316351063, -36.207571122867051 ], [ -11.5434597871, -36.528725171900007 ], [ -11.76449932570738, -36.750332239918293 ], [ -12.255838582451993, -36.850896533969383 ], [ -12.429564862677903, -36.886453759428619 ], [ -12.954710493610502, -36.935863791036397 ], [ -13.135593556313388, -36.982568329786147 ], [ -13.1623931488, -36.988602654 ], [ -13.16574941324264, -36.990354660730787 ], [ -13.543129223035598, -37.18540585012844 ], [ -13.84094172938121, -37.274869641624242 ], [ -13.83328884697789, -37.324613377245818 ], [ -14.108939880540253, -37.45292928941025 ], [ -14.3451152386, -37.553688442200006 ], [ -14.555510772070265, -37.814494087687777 ], [ -14.57454168646867, -37.838084749675858 ], [ -14.665566702798284, -37.984419975843636 ], [ -14.737342006, -38.104976083200008 ], [ -14.773700973410676, -38.135118820065543 ], [ -14.805453156399999, -38.179031293900003 ], [ -14.877227207343966, -38.216015575901288 ], [ -14.922019071104687, -38.244010490751741 ], [ -14.961211951895317, -38.264540094975402 ], [ -14.985474211432374, -38.277604388572279 ], [ -15.009736470969431, -38.283203371542371 ], [ -15.035865058163186, -38.290668682169155 ], [ -15.045196696446668, -38.294401337482554 ], [ -15.078790594267209, -38.305599303422731 ], [ -15.127315113341323, -38.327995235303092 ], [ -15.1403794069382, -38.341059528899969 ], [ -15.199279127600001, -38.370443141 ], [ -15.409351582803232, -38.021230107779452 ], [ -15.456314251635169, -37.983193885186672 ], [ -15.698711068796195, -38.066442700784179 ], [ -15.906395748509981, -38.204292565203723 ], [ -16.055536550831533, -38.280859235681859 ], [ -16.056913040200001, -38.279176905100002 ], [ -16.13643793092249, -38.320221373851503 ], [ -16.518864213104958, -38.517599621670364 ], [ -16.930117034345137, -38.729855852606448 ], [ -17.249140308432196, -38.873456314375332 ], [ -17.384036183622104, -38.93417636692768 ], [ -17.786234241799999, -39.115215907200003 ], [ -17.977700408733828, -39.231795321978005 ] ] ] ] } },
{ "type": "Feature", "properties": { "STATE": "TURNIPS" }, "geometry": { "type": "MultiPolygon", "coordinates": [ [ [ [ -2.0163051143, -50.222959958300002 ], [ -1.6839748457, -49.982293823 ], [ -1.0748202573, -49.566857007200007 ], [ -0.7466541355, -49.919932376600002 ], [ 0.3822251249, -51.344641927800005 ], [ -0.6189949856, -51.435719014 ], [ -0.913422200199999, -50.907253009800002 ], [ -1.4282632555, -50.401034524600007 ], [ -1.326321216899999, -51.408590647100006 ], [ -1.9416912004, -51.806814865 ], [ -2.0163051143, -50.222959958300002 ] ] ], [ [ [ -3.233711713137263, -51.246090229526345 ], [ -3.4091278676, -51.151398524700006 ], [ -2.0586913683, -49.812733106400003 ], [ -2.046594993047295, -50.20086371825218 ], [ -3.233711713137263, -51.246090229526345 ] ] ], [ [ [ -0.27144539, -49.736835857100004 ], [ -0.2338535405, -49.782180141600001 ], [ -0.1775460358, -49.845597924100005 ], [ -0.1025228761, -49.927089204600001 ], [ -0.0181418887, -50.017617234300005 ], [ 0.0118580651, -50.155094940900007 ], [ -0.051720256599999, -50.202205157300007 ], [ -0.1344958513, -50.203650010700002 ], [ -0.1724087794, -50.139911149600003 ], [ -0.389083666699999, -49.849290327200002 ], [ -0.4366755009, -49.758120140500004 ], [ -0.354542063199999, -49.719886133900005 ], [ -0.27144539, -49.736835857100004 ] ] ] ] } },
{ "type": "Feature", "properties": { "STATE": "GUAVA" }, "geometry": { "type": "MultiPolygon", "coordinates": [ [ [ [ 2.8170342752, -35.288437627600004 ], [ 2.8170342752, -35.340401623300004 ], [ 2.8170342752, -35.418347616900007 ], [ 2.6676377875, -35.444329614700003 ], [ 2.661142288100001, -35.366383621200001 ], [ 2.661142288100001, -35.340401623300004 ], [ 2.5442232978, -35.262455629800002 ], [ 2.4402953064, -35.197500635200001 ], [ 2.4467908058, -35.132545640600007 ], [ 2.4662773042, -35.067590645900005 ], [ 2.8170342752, -35.203996134600004 ], [ 2.8170342752, -35.216987133600007 ], [ 2.8170342752, -35.288437627600004 ] ] ], [ [ [ 2.4199432489, -34.671629519200003 ], [ 2.2371803002, -34.112555749 ], [ 2.225922626, -33.901523639200008 ], [ 2.228410882782862, -33.304754935502963 ], [ 2.2731273233, -33.355778182600005 ], [ 2.6612190785, -33.402819607500007 ], [ 3.2845179579, -33.167612483200003 ], [ 3.9078168373, -33.179372839400003 ], [ 4.015690544642864, -33.152108056231043 ], [ 4.9309678281, -32.897124290200004 ], [ 4.9638417363, -32.912465447400002 ], [ 4.976256828065702, -32.948757800771624 ], [ 5.224882704015277, -33.034284565607301 ], [ 5.2538557962, -33.044251246800002 ], [ 5.254395188901047, -33.048057058547229 ], [ 5.2837785146, -33.061769277200007 ], [ 5.3657060756, -33.833437133900006 ], [ 5.2807386757, -34.074571072800005 ], [ 5.0977402835, -34.517928133500007 ], [ 4.605103514900001, -34.802611552500004 ], [ 3.9829970253, -35.011826396 ], [ 3.7535593541, -35.149586407600005 ], [ 3.5563556711, -35.090609535 ], [ 3.478429732, -35.089047855500006 ], [ 3.01206767, -34.966421584200006 ], [ 2.7199305284, -34.925899641500003 ], [ 2.4199432489, -34.671629519200003 ] ] ] ] } },
{ "type": "Feature", "properties": { "STATE": "NORTH ORLE" }, "geometry": { "type": "MultiPolygon", "coordinates": [ [ [ [ -27.0932009092, -32.520776470200005 ], [ -27.100191245300003, -31.958162742900001 ], [ -27.097143073109816, -31.153154187274907 ], [ -27.097310941799996, -31.153228831 ], [ -27.097127368400002, -31.149006644100005 ], [ -27.075650876736333, -30.655047335616764 ], [ -27.067683094, -30.471788332600006 ], [ -26.208475509099998, -30.501416180400007 ], [ -25.706015270527715, -30.491224517649435 ], [ -25.378468822340309, -30.452046518834273 ], [ -24.933497035599999, -30.488304521600007 ], [ -24.3276403355, -30.489325815400001 ], [ -24.306993390498583, -30.488731867320304 ], [ -24.342046274147805, -31.200118232153386 ], [ -24.350961065141384, -31.639976126185111 ], [ -24.3530636626, -31.743718781600002 ], [ -24.372712099015644, -32.320463316431436 ], [ -24.372762192800003, -32.322141458200001 ], [ -24.372331775698953, -32.322249062474953 ], [ -24.372238291400002, -32.327717893700004 ], [ -24.346460914399998, -32.465646732600007 ], [ -24.36671897097564, -33.143288356774406 ], [ -24.373991311527803, -33.386551605888016 ], [ -24.37919419376999, -33.560590490606351 ], [ -24.374386221834015, -33.950036217364413 ], [ -24.367671924948645, -34.493894265001813 ], [ -24.364058491499996, -34.786582374300004 ], [ -24.856040780395638, -34.861826724404949 ], [ -25.164817452199998, -34.909051391900007 ], [ -25.18817908, -34.910511493600005 ], [ -25.258742759067708, -34.920888505222564 ], [ -25.640022550799998, -34.981729818700003 ], [ -25.641056993492626, -34.984833146779216 ], [ -25.653299930495699, -34.985371816326591 ], [ -25.877466399309498, -35.043662709987629 ], [ -26.102352470500001, -35.064051041700004 ], [ -26.157410036582988, -35.025103185996912 ], [ -26.663884924281049, -35.086917661164065 ], [ -27.077084246399998, -35.137347998100005 ], [ -27.098835519300003, -34.165942066900001 ], [ -27.086888370300002, -33.076279891300004 ], [ -27.0932009092, -32.520776470200005 ] ] ] ] } },
{ "type": "Feature", "properties": { "STATE": "AUSTINAS" }, "geometry": { "type": "MultiPolygon", "coordinates": [ [ [ [ -13.420363676600001, -39.191795456400001 ], [ -13.8226509345, -38.982180463900001 ], [ -14.026664385885862, -38.892968123553175 ], [ -14.369761287419216, -38.746891833861646 ], [ -15.199279127600001, -38.370443141 ], [ -15.1403794069382, -38.341059528899969 ], [ -15.127315113341323, -38.327995235303092 ], [ -15.078790594267209, -38.305599303422731 ], [ -15.045196696446668, -38.294401337482554 ], [ -15.035865058163186, -38.290668682169155 ], [ -15.009736470969431, -38.283203371542371 ], [ -14.985474211432374, -38.277604388572279 ], [ -14.961211951895317, -38.264540094975402 ], [ -14.922019071104687, -38.244010490751741 ], [ -14.877227207343966, -38.216015575901288 ], [ -14.805453156399999, -38.179031293900003 ], [ -14.773700973410676, -38.135118820065543 ], [ -14.737342006, -38.104976083200008 ], [ -14.665566702798284, -37.984419975843636 ], [ -14.57454168646867, -37.838084749675858 ], [ -14.555510772070265, -37.814494087687777 ], [ -14.3451152386, -37.553688442200006 ], [ -14.108939880540253, -37.45292928941025 ], [ -13.83328884697789, -37.324613377245818 ], [ -13.84094172938121, -37.274869641624242 ], [ -13.543129223035598, -37.18540585012844 ], [ -13.16574941324264, -36.990354660730787 ], [ -13.1623931488, -36.988602654 ], [ -13.135593556313388, -36.982568329786147 ], [ -12.954710493610502, -36.935863791036397 ], [ -12.446121919504158, -36.850818656620639 ], [ -12.429564862677903, -36.886453759428619 ], [ -12.255838582451993, -36.850896533969383 ], [ -11.76449932570738, -36.750332239918293 ], [ -11.28189755239441, -37.20833285231776 ], [ -11.272655564145499, -37.217103719960313 ], [ -11.263794793700001, -37.225512802800004 ], [ -11.015846436448211, -37.43564707501082 ], [ -10.943536690064194, -37.483490891844738 ], [ -10.844305682402515, -37.488583614290256 ], [ -9.752449520299999, -37.842090285300003 ], [ -9.648996686959453, -37.819844079655041 ], [ -8.552748600778175, -38.277570763133724 ], [ -8.536738065182378, -38.282801800025304 ], [ -8.367281608499999, -38.338167404200007 ], [ -9.877710288477658, -39.053513653720337 ], [ -9.991065587943933, -39.10220842236464 ], [ -9.9905586625, -39.103530173 ], [ -10.442391723563183, -39.305364916825575 ], [ -10.5819638099, -39.373980845600002 ], [ -11.194615757106199, -39.638716703516316 ], [ -11.217825792099999, -39.648688053 ], [ -11.427150325992939, -39.746752784793252 ], [ -11.787215150939732, -39.943883674616622 ], [ -12.611120436681665, -39.564322803693571 ], [ -13.420363676600001, -39.191795456400001 ] ] ] ] } },
{ "type": "Feature", "properties": { "STATE": "FLORENTIA" }, "geometry": { "type": "MultiPolygon", "coordinates": [ [ [ [ -24.373991311527803, -33.386551605888016 ], [ -24.36671897097564, -33.143288356774406 ], [ -24.346460914399998, -32.465646732600007 ], [ -24.372238291400002, -32.327717893700004 ], [ -24.372331775698953, -32.322249062474953 ], [ -24.372762192800003, -32.322141458200001 ], [ -24.372712099015644, -32.320463316431436 ], [ -24.3530636626, -31.743718781600002 ], [ -24.350961065141384, -31.639976126185111 ], [ -24.342046274147805, -31.200118232153386 ], [ -24.3276403355, -30.489325815400001 ], [ -24.306993390498583, -30.488731867320304 ], [ -23.809792792800003, -30.505755101500007 ], [ -23.809791050614884, -30.504773648768769 ], [ -23.655457627740041, -30.523985444829876 ], [ -22.237240812894843, -30.721162304247343 ], [ -22.055388684808872, -30.723828624060221 ], [ -21.567383256702527, -30.730983770142082 ], [ -21.2145010586, -30.764556205700003 ], [ -21.215743443198889, -30.930847198969012 ], [ -21.212592094, -31.814738843600004 ], [ -21.198932733199999, -31.893932128700001 ], [ -21.091996312888991, -32.421249984672912 ], [ -21.086608811838346, -32.475797957988277 ], [ -21.060129750242758, -32.743896122936164 ], [ -21.0448254155, -32.898851163373287 ], [ -20.97051707405021, -33.574857852686073 ], [ -20.920203499284675, -34.047055218745811 ], [ -20.936699582862744, -34.101084690177714 ], [ -20.926248835395754, -34.342163450597504 ], [ -20.841699694244191, -34.975649912431287 ], [ -21.39039922752632, -35.157244387933396 ], [ -21.829353033548212, -35.327722491241985 ], [ -21.854857624325831, -35.381290773459583 ], [ -22.343451262, -35.364890355400007 ], [ -22.673779498649807, -35.354793097607867 ], [ -22.749340739359369, -35.353026214942979 ], [ -24.311601875210521, -34.806539559158281 ], [ -24.364058491499996, -34.786582374300004 ], [ -24.367671924948645, -34.493894265001813 ], [ -24.374386221834015, -33.950036217364413 ], [ -24.37919419376999, -33.560590490606351 ], [ -24.373991311527803, -33.386551605888016 ] ] ], [ [ [ -23.809791050614884, -30.504773648768769 ], [ -23.836096014279796, -30.50149914355848 ], [ -23.904243931502371, -30.493015926745933 ], [ -23.906358405739184, -30.487518351221595 ], [ -23.920065030689038, -30.487912647984025 ], [ -23.809737182659262, -30.474427360297973 ], [ -23.809791050614884, -30.504773648768769 ] ] ] ] } },
{ "type": "Feature", "properties": { "STATE": "ORLAVIA" }, "geometry": { "type": "MultiPolygon", "coordinates": [ [ [ [ -15.771207819503488, -40.572248629381477 ], [ -15.92356280133383, -40.622390379068335 ], [ -16.722630518499997, -40.790145589900007 ], [ -17.554159913682803, -40.948932682159196 ], [ -17.693114505800001, -40.976759637200004 ], [ -17.762738373211661, -40.988586980010027 ], [ -17.964147284699997, -41.022801285100002 ], [ -18.460291261965242, -40.413908945597022 ], [ -18.703513777575687, -40.113111634136821 ], [ -18.988024991099998, -39.778508049700001 ], [ -18.458785716220568, -39.492123008063871 ], [ -18.424248653712869, -39.473434111465046 ], [ -18.037720081467267, -39.264273517173685 ], [ -17.977700408733828, -39.231795321978005 ], [ -17.786234241799999, -39.115215907200003 ], [ -17.384036183622104, -38.93417636692768 ], [ -17.249140308432196, -38.873456314375332 ], [ -16.930117034345137, -38.729855852606448 ], [ -16.518864213104958, -38.517599621670364 ], [ -16.13643793092249, -38.320221373851503 ], [ -16.056913040200001, -38.279176905100002 ], [ -16.055536550831533, -38.280859235681859 ], [ -15.906395748509981, -38.204292565203723 ], [ -15.698711068796195, -38.066442700784179 ], [ -15.456314251635169, -37.983193885186672 ], [ -15.409351582803232, -38.021230107779452 ], [ -15.199279127600001, -38.370443141 ], [ -14.369761287419216, -38.746891833861646 ], [ -14.026664385885862, -38.892968123553175 ], [ -13.8226509345, -38.982180463900001 ], [ -13.420363676600001, -39.191795456400001 ], [ -12.611120436681665, -39.564322803693571 ], [ -11.787215150939732, -39.943883674616622 ], [ -12.047870388089954, -39.985680839345548 ], [ -12.946379107, -40.137925458400005 ], [ -13.432863138289083, -40.197492448645249 ], [ -14.401443554717424, -40.317316830077957 ], [ -14.4269243693, -40.320469095800007 ], [ -14.435473601, -40.369864656900006 ], [ -15.388595331068448, -40.514277040230112 ], [ -15.608206834099999, -40.569403436600005 ], [ -15.771207819503488, -40.572248629381477 ] ] ] ] } },
{ "type": "Feature", "properties": { "STATE": "ARVENTIA" }, "geometry": { "type": "MultiPolygon", "coordinates": [ [ [ [ -30.656104663105484, -39.942222008662434 ], [ -30.503246030812733, -39.969197061419976 ], [ -30.431312556792616, -39.897263587399856 ], [ -30.431312556792616, -40.086088956702667 ], [ -30.467279293802672, -40.167014114975302 ], [ -30.40433750403507, -40.355839484278107 ], [ -30.467279293802672, -40.472731379560805 ], [ -30.57517950483285, -40.616598327601039 ], [ -30.701063084368059, -40.616598327601039 ], [ -30.808963295398236, -40.526681485075891 ], [ -30.898880137923381, -40.463739695308291 ], [ -30.907871822175895, -40.409789589793199 ], [ -30.898880137923381, -40.328864431520564 ], [ -30.710054768620573, -40.211972536237873 ], [ -30.880896769418353, -40.068105588197639 ], [ -31.006780348953559, -39.951213692914948 ], [ -31.015772033206073, -39.933230324409919 ], [ -31.024763717458587, -39.852305166137285 ], [ -31.006780348953559, -39.834321797632256 ], [ -31.096697191478707, -39.699446533844537 ], [ -30.943838559185956, -39.645496428329444 ], [ -30.737029821378115, -39.780371692117164 ], [ -30.656104663105484, -39.942222008662434 ] ] ], [ [ [ -30.057407189170476, -38.006841635676054 ], [ -30.017143713303572, -38.03560126129527 ], [ -30.011391788179729, -38.047105111542955 ], [ -29.913609061074389, -38.104624362781387 ], [ -29.867593660083642, -38.052857036666801 ], [ -29.71229168173987, -38.098872437657548 ], [ -29.637516655129904, -38.213910940134419 ], [ -29.637516655129904, -38.277182116496697 ], [ -29.551237778272252, -38.409476394345091 ], [ -29.510974302405348, -38.478499495831215 ], [ -29.539733928024567, -38.478499495831215 ], [ -29.562741628519941, -38.668313024918049 ], [ -29.401687725052323, -38.835118853509506 ], [ -29.482214676786132, -39.030684307720186 ], [ -29.263641522080082, -39.318280563912353 ], [ -29.263641522080082, -39.318280563912353 ], [ -29.672028205872966, -38.950157355986377 ], [ -29.706539756616024, -39.065195858463248 ], [ -29.706539756616024, -39.139970885073211 ], [ -30.017143713303572, -39.433319066389224 ], [ -30.212709167514248, -39.467830617132286 ], [ -30.281732269000369, -39.370047890026946 ], [ -30.178197616771186, -39.283769013169298 ], [ -30.051655264046634, -39.082451633834772 ], [ -30.177556056784653, -38.800788221975687 ], [ -30.275221808159927, -39.064485750688931 ], [ -30.617051937973383, -39.064485750688931 ], [ -30.763550565036294, -39.054719175551398 ], [ -31.017481518612009, -39.044952600413872 ], [ -31.408144524113101, -39.142618351789146 ], [ -31.554643151176013, -38.732422196012998 ], [ -31.49604370035085, -38.556623843537501 ], [ -31.399103087226127, -38.288991153616919 ], [ -31.590007709881405, -38.034451656743215 ], [ -31.637733865545226, -37.811729596978722 ], [ -31.653642584099831, -37.636733692878053 ], [ -31.335468213007701, -37.286741884676708 ], [ -31.160472308907032, -37.191289573349067 ], [ -31.160472308907032, -37.14356341768525 ], [ -31.208198464570849, -36.952658795029969 ], [ -31.160472308907032, -36.936750076475363 ], [ -31.160472308907032, -36.87311520225694 ], [ -31.096837434688606, -36.745845453820081 ], [ -31.017293841915571, -36.745845453820081 ], [ -30.921841530587933, -36.71402801671087 ], [ -30.778663063596476, -36.586758268274018 ], [ -30.715028189378046, -36.904932639366152 ], [ -30.540032285277377, -36.618575705383229 ], [ -30.460488692504342, -36.87311520225694 ], [ -30.460488692504342, -36.936750076475363 ], [ -30.476397411058951, -37.350376758895131 ], [ -30.476397411058951, -37.604916255768835 ], [ -30.22638893247229, -37.814364133085419 ], [ -30.167789481647123, -38.107361387211242 ], [ -30.091918739913535, -38.047105111542955 ], [ -30.057407189170476, -38.006841635676054 ] ] ], [ [ [ -29.943069251199734, -36.898514350446071 ], [ -29.899341438759546, -37.131729350127081 ], [ -29.892053470019516, -37.160881225087202 ], [ -29.826461751359233, -37.19003310004733 ], [ -29.884765501279485, -36.87665044422598 ], [ -29.782733938919044, -37.117153412647014 ], [ -29.680702376558603, -37.204609037527391 ], [ -29.556806907978071, -37.401384193508243 ], [ -29.680702376558603, -37.50341575586868 ], [ -29.76815800143898, -37.262912787447647 ], [ -29.76087003269895, -37.379520287288145 ], [ -29.76087003269895, -37.474263880908559 ], [ -29.76815800143898, -37.525279662088778 ], [ -29.811885813879169, -37.634599193189246 ], [ -29.841037688839297, -37.656463099409343 ], [ -29.957645188679798, -37.656463099409343 ], [ -30.045100813560175, -37.583583412009027 ], [ -30.045100813560175, -37.525279662088778 ], [ -29.957645188679798, -37.430536068468371 ], [ -29.972221126159862, -37.255624818707616 ], [ -30.037812844820145, -37.204609037527391 ], [ -30.045100813560175, -36.971394037846387 ], [ -30.161708313400677, -37.044273725246704 ], [ -30.183572219620771, -36.898514350446071 ], [ -29.943069251199734, -36.898514350446071 ] ] ] ] } },
{ "type": "Feature", "properties": { "STATE": "CARLYNIA" }, "geometry": { "type": "MultiPolygon", "coordinates": [ [ [ [ -1.5835279013, -44.989009833100006 ], [ -1.5044337434, -45.046532857 ], [ -1.5907182792, -45.104055880900006 ], [ -1.4397203415, -45.291005708600004 ], [ -1.6122894132, -45.219101928700006 ], [ -1.6554316811, -45.326957598500002 ], [ -1.8495718868, -45.362909488500001 ], [ -2.0077602025, -45.240673062700004 ], [ -2.086854360399999, -44.989009833100006 ], [ -1.8639526428, -44.981819455100002 ], [ -1.7776681069, -44.902725297300002 ], [ -1.5835279013, -44.989009833100006 ] ] ], [ [ [ -0.4618964583, -44.776839725900004 ], [ -0.664248136399999, -45.075549346 ], [ -1.5874804763, -44.642195390500007 ], [ -2.7552154769, -44.680481784 ], [ -2.2059752077, -44.227599456800007 ], [ -1.2905747591, -43.514550686300005 ], [ -1.300210553299999, -43.485643303700002 ], [ -0.7316986958, -44.362500575500007 ], [ -0.4618964583, -44.776839725900004 ] ] ] ] } },
{ "type": "Feature", "properties": { "STATE": "WEST NOIRLIA" }, "geometry": { "type": "MultiPolygon", "coordinates": [ [ [ [ 6.6456614077, -37.582146675400004 ], [ 6.2588046912, -37.163580392 ], [ 5.16391573223797, -37.306815267389297 ], [ 3.951092984800001, -37.595990277 ], [ 4.4494626414, -36.820748589 ], [ 4.961675899399999, -36.446971346700003 ], [ 5.4185147513, -36.100881307400002 ], [ 5.4462019544, -36.100881307400002 ], [ 6.2841723447, -36.510363313300005 ], [ 6.6456614077, -37.582146675400004 ] ] ] ] } },
{ "type": "Feature", "properties": { "STATE": "HARLIA" }, "geometry": { "type": "MultiPolygon", "coordinates": [ [ [ [ -23.920065030689038, -30.487912647984025 ], [ -24.306993390498583, -30.488731867320304 ], [ -24.3276403355, -30.489325815400001 ], [ -24.933497035599999, -30.488304521600007 ], [ -25.378468822340309, -30.452046518834273 ], [ -25.706015270527715, -30.491224517649435 ], [ -26.208475509099998, -30.501416180400007 ], [ -27.067683094, -30.471788332600006 ], [ -27.075650876736333, -30.655047335616764 ], [ -27.041511685578069, -30.222664215758062 ], [ -26.983347007631593, -29.99251367111674 ], [ -26.982751837259919, -29.991051266264755 ], [ -26.981772910120455, -29.990446498765273 ], [ -26.981616980871486, -29.990350167855446 ], [ -26.973075252689647, -29.99190399264829 ], [ -25.401693606199998, -29.17087127 ], [ -23.798652428799997, -29.118915103700004 ], [ -22.359390727499999, -29.153736609300005 ], [ -21.365182388936447, -29.254365903662148 ], [ -19.36129143574162, -29.206403600256081 ], [ -18.993114395399999, -29.187460344 ], [ -17.838401551, -29.110215316200005 ], [ -16.403777625493213, -29.028504370296886 ], [ -16.530707232275546, -29.856041596622745 ], [ -16.5384120969, -29.868460579600004 ], [ -16.640243644286592, -30.279022062282444 ], [ -16.800184004389322, -30.906928014527072 ], [ -16.84722651322533, -30.952346310227856 ], [ -16.896207594467189, -30.99963624621622 ], [ -17.398659164400001, -31.019113643700003 ], [ -18.497911303599999, -31.119857504100004 ], [ -18.574093396881572, -31.116026912909916 ], [ -18.884203921360935, -31.009964140519344 ], [ -19.305622369012404, -31.005462296152494 ], [ -19.323072783129298, -31.00533069134093 ], [ -19.919735963174197, -30.99349236378918 ], [ -20.957696631028348, -30.822421565382314 ], [ -21.2145010586, -30.764556205700003 ], [ -21.567383256702527, -30.730983770142082 ], [ -22.055388684808872, -30.723828624060221 ], [ -22.237240812894843, -30.721162304247343 ], [ -23.655457627740041, -30.523985444829876 ], [ -23.809791050614884, -30.504773648768769 ], [ -23.809792792800003, -30.505755101500007 ], [ -23.836096014279796, -30.50149914355848 ], [ -23.904243931502371, -30.493015926745933 ], [ -23.920065030689038, -30.487912647984025 ] ] ] ] } },
{ "type": "Feature", "properties": { "STATE": "AURYSTIA" }, "geometry": { "type": "MultiPolygon", "coordinates": [ [ [ [ -15.244825236626189, -45.782340856589371 ], [ -15.188328565373752, -45.73885851643027 ], [ -15.115336306858053, -45.650298790216112 ], [ -15.072644048099999, -45.564914272700001 ], [ -14.991359043, -45.491742431800006 ], [ -14.984259898024639, -45.463345851952852 ], [ -14.983835831510756, -45.442596591989684 ], [ -14.755629222855946, -45.064930725553907 ], [ -14.595548941401479, -44.759558655496591 ], [ -14.465429381027015, -44.47700282239586 ], [ -14.447700829199999, -44.438590960100001 ], [ -14.447242103400001, -44.437597054200005 ], [ -14.447236244132993, -44.43758435912148 ], [ -14.299880272, -44.239670438600001 ], [ -14.095965744400001, -43.871737704100006 ], [ -14.064539420900001, -43.781948208300001 ], [ -13.959111826319663, -43.637253259789297 ], [ -13.744874852346809, -43.31544539374093 ], [ -13.6696480858666, -43.202446387351948 ], [ -13.365006814057985, -42.673831630429895 ], [ -13.184806431088507, -42.366988794022021 ], [ -13.025257518139414, -42.095311008501518 ], [ -12.6254582364, -41.414538062399998 ], [ -12.45578164700699, -41.149437463409903 ], [ -12.428252253143542, -41.036399142145285 ], [ -12.433108768343541, -41.028767475445285 ], [ -12.102647246011466, -40.465447416715335 ], [ -11.787215150939732, -39.943883674616622 ], [ -11.610143905762026, -39.960558567954301 ], [ -10.854748882499999, -40.100446535200007 ], [ -10.740907547544541, -40.117583940464662 ], [ -9.315309837399999, -40.332190047400005 ], [ -9.249097405299999, -40.365296263400005 ], [ -8.950529209299999, -40.351274964800005 ], [ -7.8927038658, -40.446989434900004 ], [ -7.8634206928, -40.489295375200001 ], [ -7.8616773492, -40.589171465200003 ], [ -7.233228930122804, -40.666216396844646 ], [ -6.317234610362099, -40.778513154399505 ], [ -6.231139099, -40.789068074400006 ], [ -5.972839292064756, -40.732702700869815 ], [ -4.766894228704563, -40.46954515243916 ], [ -4.976078527995677, -40.941192463599265 ], [ -5.535342906171615, -41.250922577347254 ], [ -5.8888164788, -41.424695176200004 ], [ -5.798861704805742, -41.800543781600886 ], [ -5.707441351826846, -41.745691569813552 ], [ -5.581743519226343, -42.252350576800005 ], [ -6.077385179930102, -42.182945946961951 ], [ -6.404921514170634, -42.137081081598943 ], [ -6.9564066203, -42.059856702200001 ], [ -7.41782978858893, -42.399431981193906 ], [ -7.440149172522551, -42.397834400777299 ], [ -7.744906950202233, -42.401695969829028 ], [ -8.008360912302233, -42.379741473029028 ], [ -8.6698327528, -42.787011831800001 ], [ -9.207174949900001, -43.113397462600005 ], [ -9.462131252599999, -43.268259809400007 ], [ -10.182117083001703, -43.708816546167306 ], [ -10.257189024570955, -43.642695719909455 ], [ -10.26240711245276, -43.637978347632988 ], [ -10.294478851341397, -43.608984138390383 ], [ -11.006399738703927, -44.214771731034915 ], [ -11.775340740426568, -44.66736687382933 ], [ -11.979027277527333, -44.791451775724809 ], [ -12.065390802483279, -44.844064038047307 ], [ -12.281993654625813, -44.976017499679834 ], [ -12.320834568914096, -45.005972389937412 ], [ -12.496568620493218, -45.141502006735344 ], [ -12.805467360845489, -45.379730895975158 ], [ -12.980882127003088, -45.515014273467507 ], [ -13.444957469199998, -45.825268944600005 ], [ -13.604945670141483, -45.887554364765812 ], [ -15.163937398587588, -46.926374723549877 ], [ -15.3607792098, -46.459427116600004 ], [ -15.504564941475028, -46.20636810387002 ], [ -15.244825236626189, -45.782340856589371 ] ] ], [ [ [ -4.66699668198059, -40.382683032205065 ], [ -4.6638864859, -40.381849371400001 ], [ -4.667000593399795, -40.38450057102829 ], [ -4.66699668198059, -40.382683032205065 ] ] ] ] } }
]
}
